#dP2025  2 10  0  0  0.00000000      96 __u+U IGS20 EXT  IAC
## 2353  86400.00000000   900.00000000 60716 0.0000000000000
+   53   G01G02G03G04G05G06G07G08G09G10G11G12G13G14G15G16G17
+        G18G19G20G21G22G23G24G25G26G27G28G29G30G31G32R01R02
+        R03R04R05R07R08R09R11R12R14R15R16R17R18R19R20R21R22
+        R24R26  0  0  0  0  0  0  0  0  0  0  0  0  0  0  0
+          0  0  0  0  0  0  0  0  0  0  0  0  0  0  0  0  0
++         8  8  9  8  8  8  8  9  8  8 10  8  8  8  8  8  8
++         8  8  8  9  8  8  8  8  8  8  8  8  8  8  8  8  7
++         7  7  8  8  9  9  8  9  9  8  9 10  9  9  9  7  8
++         8  9  0  0  0  0  0  0  0  0  0  0  0  0  0  0  0
++         0  0  0  0  0  0  0  0  0  0  0  0  0  0  0  0  0
%c M  cc GPS ccc cccc cccc cccc cccc ccccc ccccc ccccc ccccc
%c cc cc ccc ccc cccc cccc cccc cccc ccccc ccccc ccccc ccccc
%f  0.0000000  0.000000000  0.00000000000  0.000000000000000
%f  0.0000000  0.000000000  0.00000000000  0.000000000000000
%i    0    0    0    0      0      0      0      0         0
%i    0    0    0    0      0      0      0      0         0
/* IAC                                ULTRA-RAPID PREDICTION
/* S/V CLOCKS ARE ALIGNED TO GNSS TIME                      
/* G:C1WC2W R:C1PC2P E:C1XC5X C:C2IC6I J:C1CC2S             
/* PCV:IGS20_2350 OL/AL:FES2004  NONE     YN ORB:CoN CLK:CoN
*  2025 02 10  0  0  0.00000000
PG01  21360.860342  15711.618325  -1648.939614    110.707674
PG02  22168.392089  13927.933922  -5095.199473   -246.818158
PG03  11838.952323  15584.034461  17845.575943    661.000273
PG04  18112.478225   4938.462801  18870.070342    524.897377
PG05  -6167.714480 -24907.581306  -6897.203198   -201.506598
PG06   8799.693635 -11759.550085  22206.280546   -177.178402
PG07  23930.459757   4913.319451 -10405.595933    -13.693435
PG08   8989.504108  12679.454107 -21683.405565    477.370745
PG09  23049.686191  -4165.563625  12497.781088    561.329162
PG10 -10388.407806  18145.230406 -15939.184382   -312.139870
PG11  -3000.576310 -17793.712303  19548.051096   -748.074676
PG12 -10353.713748 -18036.336814  16253.955417   -569.328346
PG13   1493.414961 -16198.313925 -21181.028002    696.014359
PG14  13010.275158 -14648.529343 -17772.907590    595.751127
PG15 -10877.265756 -11691.163164 -21752.863801    261.661688
PG16   -405.812543  26244.085147  -2226.578909    -56.816434
PG17  22976.531120 -13448.147817   2073.838642    433.279661
PG18 -22928.902423  -3039.416003 -13227.862569   -653.895326
PG19  17323.491177 -16407.069898  11044.339164    596.229190
PG20   -371.239459 -25837.150026   6507.248557    366.422224
PG21  18236.663071  16501.128216 -11002.282873    101.797026
PG22   9987.688907 -21565.367530 -11791.170484    -96.312135
PG23 -14532.832042   3113.319283 -21949.496168    420.583654
PG24 -20686.457486 -15303.790387  -7835.875844   -453.908616
PG25 -15166.549600  -4953.533295  20906.890691    495.269245
PG26  -4430.896826  24266.715740   9129.502448    -84.441665
PG27  -3426.267881  18006.217009 -19379.558264    -31.744701
PG28 -10719.114039  11316.340327  21494.099202   -555.991657
PG29 -23378.476892   1954.073320  12524.899850   -539.171066
PG30  17911.895005  -5778.759809 -18684.024156   -219.732710
PG31  -2329.818760  15821.407261  20899.402663   -215.873094
PG32 -19320.499033  16962.990699   6468.792397   -524.846878
PR01   1714.547235 -16932.862808 -18988.576333    114.201107
PR02 -10672.749797  -3704.591499 -22812.532294    -37.550943
PR03 -17961.459398  12113.129741 -13363.763050    116.545247
PR04 -15204.577046  20262.814759   2950.708985    276.525828
PR05  -4346.128380  17810.906305  17740.150358    145.098483
PR07  18069.097231 -12290.364105  13247.277670    100.503310
PR08  14945.178406 -20457.954851  -3062.511542     -6.174713
PR09  14194.436927  16272.665646 -13632.053909    237.079466
PR11   4066.217977 -15501.928362 -19832.824960     -7.900128
PR12  -7453.828597 -24137.500473  -3567.302293     50.612853
PR14 -11761.197169    212.378685  22636.587799     27.739229
PR15  -3161.782672  16991.247280  18775.326534     71.352111
PR16   7454.704659  24125.466338   3746.797649     33.186323
PR17 -23735.454732    358.361600  -9373.626266    164.765521
PR18 -12165.116312   7509.789701 -21092.816844    186.252589
PR19   3130.908252  11107.903078 -22745.500317    -40.100267
PR20  22052.291177   9014.537189  -9167.914737   -125.672032
PR21  24168.899408    575.124147   8105.134789   -175.461610
PR22  11176.241746  -8133.274063  21469.737634    -59.894981
PR24 -22652.046640  -7922.540824   8683.185563    -91.835222
PR26  15660.472500 -20092.914613  -1035.701839   -130.918815
*  2025 02 10  0 15  0.00000000
PG01  20928.536936  15741.942419  -4473.707192    110.730013
PG02  21364.590187  13819.092726  -7812.017117   -246.809707
PG03  11800.118051  17541.922286  15984.148496    661.005572
PG04  16247.445130   6151.412105  20155.416702    524.902432
PG05  -6013.235631 -25533.962203  -4101.987810   -201.507580
PG06  10985.767922 -10554.072110  21845.120228   -177.200980
PG07  24800.629587   5632.910786  -7862.374369    -13.693884
PG08   6960.675777  14051.175112 -21541.967809    477.376863
PG09  21859.589955  -3125.330530  14719.518216    561.341659
PG10 -10605.716497  16173.132549 -17811.970550   -312.153511
PG11   -973.489228 -16724.794367  20663.099133   -748.072703
PG12 -10122.431004 -19821.535665  14234.772174   -569.330208
PG13   3642.766405 -17077.654894 -20173.850565    696.015313
PG14  13227.956434 -12515.636623 -19203.534563    595.757238
PG15  -9089.329430 -13264.532833 -21656.190882    261.665641
PG16   -700.954994  26284.051934    651.943457    -56.808068
PG17  23113.233056 -13264.981217   -777.200752    433.262890
PG18 -24053.754798  -3841.486743 -10828.007771   -653.893384
PG19  18462.071451 -16694.317861   8464.744050    596.233116
PG20     58.381341 -25029.828123   9156.900064    366.421995
PG21  16877.967112  16110.571586 -13316.026605    101.796717
PG22  10117.394152 -20033.107699 -14061.286668    -96.313548
PG23 -14725.210323    597.916682 -22053.624866    420.590234
PG24 -19683.146070 -15187.473807 -10355.134983   -453.904209
PG25 -15251.725493  -7376.651861  20153.054385    495.268622
PG26  -4921.598533  23093.701078  11581.307744    -84.456608
PG27  -5257.472341  19021.535392 -17879.698097    -31.744102
PG28 -12879.485132  10213.380248  20852.051219   -555.999390
PG29 -22085.690317   1058.373227  14759.085580   -539.167804
PG30  19684.858837  -4679.431689 -17183.865564   -219.724856
PG31  -4533.533315  14684.833289  21387.934706   -215.872246
PG32 -19923.748700  17056.639851   3672.987611   -524.839884
PR01   2933.493733 -18792.680375 -16983.755523    114.202316
PR02  -8907.486988  -5939.458097 -23100.906234    -37.550498
PR03 -16759.119583  10747.216479 -15856.903633    116.546012
PR04 -15158.949817  20502.992550   -274.665040    276.527481
PR05  -5513.923892  19500.728907  15492.529104    145.099044
PR07  16878.400090 -10960.017723  15752.437541    100.504031
PR08  14924.011129 -20711.078050    150.846098     -6.174568
PR09  14900.851709  17615.882499 -10955.246624    237.081417
PR11   5008.132282 -13144.444791 -21268.936104     -7.903266
PR12  -7325.159137 -23502.608313  -6689.821383     50.613280
PR14 -12879.168476  -2295.610790  21898.956509     27.739348
PR15  -4040.622251  14739.787578  20436.147028     71.351829
PR16   7336.790051  23464.354608   6872.192790     33.186652
PR17 -24721.340931    403.499277  -6337.844161    164.768500
PR18 -14667.140949   7231.928248 -19538.264856    186.254337
PR19    341.794462  10569.010121 -23210.200398    -40.101492
PR20  20797.669462   8584.615139 -12051.209504   -125.672522
PR21  24997.305614    505.101777   5000.560424   -175.464490
PR22  13708.465687  -7767.805611  20092.882631    -59.896353
PR24 -21433.951165  -7625.582630  11567.352551    -91.836730
PR26  15485.007106 -20140.450562   2187.426378   -130.918416
EOF
